UNKNOWN                 
1 81599U          22211.32847568 -.00000114  00000+0 -91060-4 0  9990
2 81599  67.2964  59.4598 0262646 247.7232 290.1225 13.29337404421285
UNKNOWN                 
1 81614U 76077    22209.52521406  .00006119  00000+0  47089-1 0  9992
2 81614 101.8997 244.3881 0362585 241.8221 114.5764 12.21879621845516
UNKNOWN                 
1 81615U 92021    22211.50609984  .00000093  00000+0  66092-4 0  9992
2 81615  65.8308  26.7408 0824286 340.4487  16.6571 13.23835463419301
UNKNOWN                 
1 81617U 73086    22210.86724536  .00000140  00000+0  10987-2 0  9996
2 81617 101.3079  63.7785 0037180 145.7018 214.6468 12.56311059398348
UNKNOWN                 
1 81624U          22206.56307729  .00001334  00000+0  33182-3 0  9992
2 81624  66.9898 282.6718 0092313 178.2810 181.8639 14.52434173459242
UNKNOWN                 
1 81626U          22211.45188516  .00018730  00000+0  27935-2 0  9995
2 81626  70.9965 112.3252 0016745  86.5486 273.7583 14.74744944448107
UNKNOWN                 
1 81640U          22210.49679687 -.00000012  00000+0  43309-4 0  9998
2 81640  65.8253 127.6118 0997526 217.1243 135.6607 12.55568845355284
UNKNOWN                 
1 81652U 76077    22209.42017855  .00000230  00000+0  34492-3 0  9995
2 81652 102.1682 188.0101 0377159 229.5249 289.1277 13.41631443413103
UNKNOWN                 
1 81661U          22211.02993263  .00003642  00000+0  95244-3 0  9995
2 81661  98.4255 129.2504 0068830   8.2041 352.0260 14.48571872356054
UNKNOWN                 
1 81667U          22210.60516615  .00000615  00000+0  21133-3 0  9999
2 81667  74.0442 161.1867 0016592  42.2719 317.9710 14.38089592278991
UNKNOWN                 
1 81674U          22211.44739725  .00000258  00000+0  20672-3 0  9999
2 81674  66.8232 212.3054 0023695  19.6674 135.9509 14.05506504440437
UNKNOWN                 
1 81678U          22211.18885625  .00005446  00000+0  68917-3 0  9993
2 81678  65.8316 122.0611 0050393 334.7080 100.3128 14.81780880465150
UNKNOWN                 
1 81683U          22210.12881027  .00000953  00000+0  26999-3 0  9996
2 81683  81.2232 139.6427 0032609  64.1030 296.3515 14.44581197457227
UNKNOWN                 
1 81693U 73086    22211.48577135  .00000355  00000+0  29272-2 0  9995
2 81693 101.0778  35.3884 0369367 241.1572 115.1942 12.23407141817059
UNKNOWN                 
1 81696U          22211.21509428  .00006879  00000+0  61733-3 0  9991
2 81696  97.4531 123.4233 0204290  32.7127 328.6547 14.81369846329715
UNKNOWN                 
1 81721U          22188.60068218  .00031416  00000+0  63399-2 0  9997
2 81721  98.2058 243.0281 0309331  99.0788 264.5533 14.35286392353162
UNKNOWN                 
1 81732U          22211.02903372  .00007564  00000+0  78886-3 0  9996
2 81732  65.7341  67.6119 0241537 153.2084 208.1747 14.71186567461774
UNKNOWN                 
1 81745U          22211.30736291  .00000696  00000+0  28378-3 0  9995
2 81745  71.0031 179.4918 0008336 321.8546 107.6007 14.30914529453086
UNKNOWN                 
1 81749U          22210.48172881  .00000014  00000+0  16909-3 0  9997
2 81749  99.6742  38.6105 0370815  24.5433   4.1938 12.77015747923679
UNKNOWN                 
1 81766U          22192.17588373  .00002761  00000+0  13162-2 0  9996
2 81766  81.2041 149.8347 0003959 241.6187 118.4589 14.19055357382040
UNKNOWN                 
1 81775U          22211.55161833  .00001251  00000+0  56556-3 0  9996
2 81775  82.9291 145.1537 0027350  44.1286 316.2072 14.21176805449406
UNKNOWN                 
1 81779U          22211.47234991 -.00000689  00000+0 -30833-1 0  9991
2 81779  54.2066 226.0999 1702785  63.0326 313.4022  9.24019395366051
UNKNOWN                 
1 81792U          22211.57749676  .00000050  00000+0  52521-4 0  9999
2 81792  65.8293 325.9634 0906520 108.1636 262.0152 13.04645114414186
UNKNOWN                 
1 81794U          22211.26388692  .00010768  00000+0  12259-2 0  9993
2 81794  81.1857 315.1726 0001329 134.8240 225.3080 14.86120805466183
UNKNOWN                 
1 81798U          22211.21076727  .00004967  00000+0  10461-2 0  9992
2 81798  74.0133 289.3751 0044757 314.5206  45.2305 14.59130767407694
UNKNOWN                 
1 81812U          22211.10822933  .00000709  00000+0  52340-2 0  9997
2 81812 103.7284 339.2108 0363915 161.1606 200.3317 12.29508188388763
UNKNOWN                 
1 81813U          22209.80588862  .00001081  00000+0  32218-3 0  9999
2 81813  99.0789  61.1248 0017094 189.3131 170.7743 14.45196583456914
UNKNOWN                 
1 81816U 77121    22211.43549576  .00000180  00000+0  19956-3 0  9994
2 81816  66.2378 111.5258 0197685 243.9788 114.0810 13.84349182438629
UNKNOWN                 
1 81817U          22210.96510579  .00003047  00000+0  30623-3 0  9994
2 81817  65.7261  28.1354 0305216 292.6803  64.2300 14.64163581464293
UNKNOWN                 
1 81818U          22211.53244690  .00001768  00000+0  41832-3 0  9999
2 81818  65.7556 308.2234 0658010 124.5948 241.9004 13.71826073478431
UNKNOWN                 
1 81819U          22211.14302504  .00000233  00000+0  19496-2 0  9992
2 81819 102.2170 276.3941 0032760 250.9943 108.7572 12.45470322394550
UNKNOWN                 
1 81821U          22209.42553751  .00044420 -75292-6  53187-3 0  9990
2 81821  34.0596 252.3885 2038704 220.9146 121.9391 11.47316459426313
UNKNOWN                 
1 81824U          22211.54651960  .00000729  00000+0  38672-3 0  9993
2 81824  65.8500  46.5530 0059081 280.1210  79.3214 14.18805928449053
UNKNOWN                 
1 81833U          22210.76878751  .00000020  00000+0  45236-4 0  9994
2 81833  90.2688 334.9923 0025660  11.4505 348.7192 12.93084252293268
UNKNOWN                 
1 81838U          22211.36549674  .00000912  00000+0  32229-3 0  9992
2 81838  67.7665 189.1427 0031558 118.5080  30.7288 14.38424870455298
UNKNOWN                 
1 81844U          22211.29123138  .00001281  00000+0  62581-3 0  9998
2 81844  82.9256 194.5485 0076257 273.1733  86.0723 14.15855732447730
UNKNOWN                 
1 81845U          22210.57213334  .00000489  00000+0  72885-4 0  9995
2 81845  97.7767  70.1132 0103837   2.7126  26.9815 14.75751094467309
UNKNOWN                 
1 81864U          22210.84049306  .00000493  00000+0  22649-3 0  9999
2 81864  65.6734  50.2508 0792270 184.8567 174.4448 13.26322650387129
UNKNOWN                 
1 81865U 87062    22210.89373212  .00000616  00000+0  54163-3 0  9997
2 81865  82.8055 255.0225 0068441 249.0219 286.8772 13.82911021438002
UNKNOWN                 
1 81872U          22211.43003760  .00061362  00000+0  39098-2 0  9995
2 81872  62.0108 264.9904 1745068 338.1902  15.2734 11.84461467200833
UNKNOWN                 
1 81873U          22211.35747517  .00001025  00000+0  59194-3 0  9992
2 81873  99.0906 255.2350 0069975 320.2876  39.3182 14.10146648395365
UNKNOWN                 
1 81877U          22199.50839911  .00000208  00000+0  37161-3 0  9990
2 81877  65.9318 114.7281 0071275 320.9448  38.6473 13.60574423958784
UNKNOWN                 
1 81893U 70025    22210.58097280  .00000654  00000+0  76266-3 0  9993
2 81893  99.9578 122.3011 0016105 201.5294 158.5176 13.72737618434801
UNKNOWN                 
1 81899U          22211.57138381  .00000272  00000+0  79924-3 0  9993
2 81899 102.4304  79.4404 0180913 287.2103  70.9272 13.16510801416761
UNKNOWN                 
1 81902U          22209.82077300  .00008817  00000+0  11259-2 0  9995
2 81902  81.6276  37.6829 0269702 104.6972 258.4285 14.58900046458123
UNKNOWN                 
1 81905U          22211.55084005  .00227905  99616-5  66519-2 0  9998
2 81905  61.7035  28.6862 1132217 164.7793 199.0485 13.28312294520719
UNKNOWN                 
1 81921U          22209.55197923  .00000275  00000+0  13995-3 0  9990
2 81921  65.7106 315.1736 0893609 277.4356  72.6122 13.07715408866874
UNKNOWN                 
1 81946U 87079    22210.94065145  .00000053  00000+0  34782-3 0  9994
2 81946  66.4239   0.2696 0678964 227.1235 220.3832 12.41997337394872
UNKNOWN                 
1 81947U          22207.03775509  .00003607  00000+0  41870-3 0  9996
2 81947  66.0847 317.9516 0455178 171.2626 189.6752 14.33032175452872
UNKNOWN                 
1 81964U          22211.01441977  .00000065  00000+0  10751-3 0  9996
2 81964  66.5851  74.3344 0038003 191.8260 168.1931 13.94563246442223
UNKNOWN                 
1 81969U          22211.56802741  .00001089  00000+0  11931-3 0  9999
2 81969  86.6714 318.4741 0008274 267.2582  92.7696 14.86759925256084
UNKNOWN                 
1 81995U          22210.93694965  .00001891  00000+0  44980-3 0  9996
2 81995  65.7550  47.9512 0593761 185.9220 173.4613 13.83452894432717
UNKNOWN                 
1 82039U          22211.57549796  .00003641  00000+0  79500-3 0  9999
2 82039  99.0703 251.1860 0040659 208.9806 150.9133 14.58028095377553
UNKNOWN                 
1 82043U          22209.12701292  .00000549  00000+0  18528-3 0  9990
2 82043  97.9685  96.6910 0259836 162.6655 198.3607 14.23017580397901
UNKNOWN                 
1 82044U          22211.47128605  .00000501  00000+0  57156-3 0  9991
2 82044  99.9296 280.2369 0065419 213.0552 146.6498 13.74517393392596
UNKNOWN                 
1 82051U          22209.46950422  .00001308  00000+0  60503-3 0  9991
2 82051  98.8223 275.9420 0115654 241.7510 117.1952 14.19151355396628
UNKNOWN                 
1 82073U          22211.50095402  .00000477  00000+0  15525-3 0  9991
2 82073  97.6898  43.1547 0242371  49.3588 312.8396 14.27065407398861
UNKNOWN                 
1 82112U          22211.55212890  .00002741  00000+0  72463-3 0  9992
2 82112  98.6537 317.3116 0099248  92.7686 268.4870 14.46790427403305
UNKNOWN                 
1 82134U          22210.32038865  .00449391  00000+0  89581-1 0  9991
2 82134  65.3602  69.6567 2229146 145.2809 231.6312 10.63379686 18091
UNKNOWN                 
1 82139U          22208.05508435  .00000953  00000+0  57808-3 0  9994
2 82139  99.1161 248.5951 0091482 268.3911  90.6777 14.06844317306047
